start=new Date('2023-02-25T00:00:00.000Z').valueOf();
sats=[{"CENTER_NAME":"EARTH","OBJECT_ID":"2022-049J","MEAN_ANOMALY":"276.1310","OBJECT_TYPE":"PAYLOAD","MEAN_MOTION_DDOT":"0.0000000000000","REF_FRAME":"TEME","TIME_SYSTEM":"UTC","EPOCH":"2023-02-24T05:18:21.549600","COUNTRY_CODE":"US","SITE":"AFETR","FILE":"3833912","ARG_OF_PERICENTER":"83.9793","ELEMENT_SET_NO":"999","OBJECT_NAME":"STARLINK-3856","ECCENTRICITY":"0.00009710","GP_ID":"226730095","RA_OF_ASC_NODE":"359.7177","TLE_LINE2":"2 52459  53.2174 359.7177 0000971  83.9793 276.1310 15.08871054 44911","BSTAR":"0.00106860000000","SEMIMAJOR_AXIS":"6917.785","TLE_LINE1":"1 52459U 22049J   23055.22108275  .00016774  00000-0  10686-2 0  9992","PERIOD":"95.436","MEAN_MOTION_DOT":"0.00016774","MEAN_MOTION":"15.08871054","INCLINATION":"53.2174","PERIAPSIS":"538.979","LAUNCH_DATE":"2022-05-06","MEAN_ELEMENT_THEORY":"SGP4","RCS_SIZE":"LARGE","APOAPSIS":"540.322","REV_AT_EPOCH":"4491","EPHEMERIS_TYPE":"0","CLASSIFICATION_TYPE":"U","NORAD_CAT_ID":"52459","DECAY_DATE":null},{"RA_OF_ASC_NODE":"356.5823","GP_ID":"226778497","ECCENTRICITY":"0.00015640","OBJECT_NAME":"STARLINK-3865","ARG_OF_PERICENTER":"100.0448","ELEMENT_SET_NO":"999","FILE":"3835059","PERIOD":"95.335","TLE_LINE1":"1 52460U 22049K   23055.91667824 -.00002100  00000-0 -10861-3 0  9996","SEMIMAJOR_AXIS":"6912.912","BSTAR":"-0.00010861000000","TLE_LINE2":"2 52460  53.2181 356.5823 0001564 100.0448 102.1318 15.10466900  1306","REV_AT_EPOCH":"130","EPHEMERIS_TYPE":"0","APOAPSIS":"535.858","RCS_SIZE":"LARGE","MEAN_ELEMENT_THEORY":"SGP4","LAUNCH_DATE":"2022-05-06","PERIAPSIS":"533.696","INCLINATION":"53.2181","MEAN_MOTION":"15.10466900","MEAN_MOTION_DOT":"-0.00002100","DECAY_DATE":null,"NORAD_CAT_ID":"52460","CLASSIFICATION_TYPE":"U","OBJECT_ID":"2022-049K","CENTER_NAME":"EARTH","OBJECT_TYPE":"PAYLOAD","MEAN_ANOMALY":"102.1318","TIME_SYSTEM":"UTC","MEAN_MOTION_DDOT":"0.0000000000000","REF_FRAME":"TEME","SITE":"AFETR","COUNTRY_CODE":"US","EPOCH":"2023-02-24T22:00:00.999936"},{"ELEMENT_SET_NO":"999","ARG_OF_PERICENTER":"91.6911","FILE":"3834864","RA_OF_ASC_NODE":"346.4639","OBJECT_NAME":"STARLINK-3900","ECCENTRICITY":"0.00013250","GP_ID":"226750210","TLE_LINE2":"2 52461  53.2165 346.4639 0001325  91.6911 268.4233 15.08832464 45160","BSTAR":"0.00063600000000","PERIOD":"95.438","SEMIMAJOR_AXIS":"6917.903","TLE_LINE1":"1 52461U 22049L   23055.94696722  .00009846  00000-0  63600-3 0  9990","INCLINATION":"53.2165","PERIAPSIS":"538.852","LAUNCH_DATE":"2022-05-06","MEAN_MOTION_DOT":"0.00009846","MEAN_MOTION":"15.08832464","APOAPSIS":"540.685","EPHEMERIS_TYPE":"0","REV_AT_EPOCH":"4516","MEAN_ELEMENT_THEORY":"SGP4","RCS_SIZE":"LARGE","CLASSIFICATION_TYPE":"U","NORAD_CAT_ID":"52461","DECAY_DATE":null,"OBJECT_ID":"2022-049L","CENTER_NAME":"EARTH","OBJECT_TYPE":"PAYLOAD","MEAN_ANOMALY":"268.4233","TIME_SYSTEM":"UTC","REF_FRAME":"TEME","MEAN_MOTION_DDOT":"0.0000000000000","EPOCH":"2023-02-24T22:43:37.967808","COUNTRY_CODE":"US","SITE":"AFETR"},{"FILE":"3835059","ARG_OF_PERICENTER":"94.0497","ELEMENT_SET_NO":"999","ECCENTRICITY":"0.00007330","GP_ID":"226777999","OBJECT_NAME":"STARLINK-3903","RA_OF_ASC_NODE":"357.0756","BSTAR":"-0.00020230000000","TLE_LINE2":"2 52462  53.2169 357.0756 0000733  94.0497 266.0579 15.08837404 44841","TLE_LINE1":"1 52462U 22049M   23055.80988989 -.00003505  00000-0 -20230-3 0  9995","SEMIMAJOR_AXIS":"6917.888","PERIOD":"95.438","MEAN_MOTION":"15.08837404","MEAN_MOTION_DOT":"-0.00003505","LAUNCH_DATE":"2022-05-06","PERIAPSIS":"539.246","INCLINATION":"53.2169","RCS_SIZE":"LARGE","MEAN_ELEMENT_THEORY":"SGP4","EPHEMERIS_TYPE":"0","REV_AT_EPOCH":"4484","APOAPSIS":"540.260","NORAD_CAT_ID":"52462","CLASSIFICATION_TYPE":"U","DECAY_DATE":null,"CENTER_NAME":"EARTH","OBJECT_ID":"2022-049M","MEAN_ANOMALY":"266.0579","OBJECT_TYPE":"PAYLOAD","MEAN_MOTION_DDOT":"0.0000000000000","REF_FRAME":"TEME","TIME_SYSTEM":"UTC","COUNTRY_CODE":"US","EPOCH":"2023-02-24T19:26:14.486496","SITE":"AFETR"},{"BSTAR":"0.00003869600000","TLE_LINE2":"2 52463  53.2182 346.4761 0001155  90.4696 269.6428 15.08843193 45165","SEMIMAJOR_AXIS":"6917.871","TLE_LINE1":"1 52463U 22049N   23055.94328931  .00000328  00000-0  38696-4 0  9990","PERIOD":"95.437","FILE":"3834870","ARG_OF_PERICENTER":"90.4696","ELEMENT_SET_NO":"999","OBJECT_NAME":"STARLINK-3885","GP_ID":"226749825","ECCENTRICITY":"0.00011550","RA_OF_ASC_NODE":"346.4761","CLASSIFICATION_TYPE":"U","NORAD_CAT_ID":"52463","DECAY_DATE":null,"MEAN_MOTION_DOT":"0.00000328","MEAN_MOTION":"15.08843193","INCLINATION":"53.2182","PERIAPSIS":"538.937","LAUNCH_DATE":"2022-05-06","RCS_SIZE":"LARGE","MEAN_ELEMENT_THEORY":"SGP4","APOAPSIS":"540.535","EPHEMERIS_TYPE":"0","REV_AT_EPOCH":"4516","MEAN_ANOMALY":"269.6428","OBJECT_TYPE":"PAYLOAD","CENTER_NAME":"EARTH","OBJECT_ID":"2022-049N","EPOCH":"2023-02-24T22:38:20.196384","COUNTRY_CODE":"US","SITE":"AFETR","REF_FRAME":"TEME","MEAN_MOTION_DDOT":"0.0000000000000","TIME_SYSTEM":"UTC"},{"SITE":"AFETR","COUNTRY_CODE":"US","EPOCH":"2023-02-24T22:42:18.509184","MEAN_MOTION_DDOT":"0.0000000000000","REF_FRAME":"TEME","TIME_SYSTEM":"UTC","MEAN_ANOMALY":"252.2008","OBJECT_TYPE":"PAYLOAD","CENTER_NAME":"EARTH","OBJECT_ID":"2022-049P","DECAY_DATE":null,"NORAD_CAT_ID":"52464","CLASSIFICATION_TYPE":"U","MEAN_ELEMENT_THEORY":"SGP4","RCS_SIZE":"LARGE","EPHEMERIS_TYPE":"0","REV_AT_EPOCH":"4502","APOAPSIS":"540.730","MEAN_MOTION":"15.08838457","MEAN_MOTION_DOT":"0.00010598","LAUNCH_DATE":"2022-05-06","PERIAPSIS":"538.770","INCLINATION":"53.2156","TLE_LINE1":"1 52464U 22049P   23055.94604756  .00010598  00000-0  68299-3 0  9994","SEMIMAJOR_AXIS":"6917.885","PERIOD":"95.438","TLE_LINE2":"2 52464  53.2156 356.4581 0001417 107.9138 252.2008 15.08838457 45028","BSTAR":"0.00068299000000","GP_ID":"226750216","ECCENTRICITY":"0.00014170","OBJECT_NAME":"STARLINK-3904","RA_OF_ASC_NODE":"356.4581","FILE":"3834864","ELEMENT_SET_NO":"999","ARG_OF_PERICENTER":"107.9138"},{"DECAY_DATE":null,"NORAD_CAT_ID":"52465","CLASSIFICATION_TYPE":"U","RCS_SIZE":"LARGE","MEAN_ELEMENT_THEORY":"SGP4","REV_AT_EPOCH":"4518","EPHEMERIS_TYPE":"0","APOAPSIS":"540.675","MEAN_MOTION":"15.08845802","MEAN_MOTION_DOT":"0.00002538","LAUNCH_DATE":"2022-05-06","INCLINATION":"53.2174","PERIAPSIS":"538.780","TLE_LINE1":"1 52465U 22049Q   23056.07209162  .00002538  00000-0  17749-3 0  9991","SEMIMAJOR_AXIS":"6917.863","PERIOD":"95.437","TLE_LINE2":"2 52465  53.2174 345.9042 0001370  77.9396 282.1750 15.08845802 45189","BSTAR":"0.00017749000000","ECCENTRICITY":"0.00013700","GP_ID":"226749750","OBJECT_NAME":"STARLINK-3863","RA_OF_ASC_NODE":"345.9042","FILE":"3834849","ELEMENT_SET_NO":"999","ARG_OF_PERICENTER":"77.9396","SITE":"AFETR","COUNTRY_CODE":"US","EPOCH":"2023-02-25T01:43:48.715968","MEAN_MOTION_DDOT":"0.0000000000000","REF_FRAME":"TEME","TIME_SYSTEM":"UTC","MEAN_ANOMALY":"282.1750","OBJECT_TYPE":"PAYLOAD","CENTER_NAME":"EARTH","OBJECT_ID":"2022-049Q"},{"REV_AT_EPOCH":"4490","EPHEMERIS_TYPE":"0","APOAPSIS":"540.209","RCS_SIZE":"LARGE","MEAN_ELEMENT_THEORY":"SGP4","LAUNCH_DATE":"2022-05-06","PERIAPSIS":"539.107","INCLINATION":"53.2178","MEAN_MOTION":"15.08868587","MEAN_MOTION_DOT":"0.00016528","DECAY_DATE":null,"NORAD_CAT_ID":"52466","CLASSIFICATION_TYPE":"U","RA_OF_ASC_NODE":"0.0883","ECCENTRICITY":"0.00007960","GP_ID":"226719691","OBJECT_NAME":"STARLINK-3840","ARG_OF_PERICENTER":"92.2821","ELEMENT_SET_NO":"999","FILE":"3833314","PERIOD":"95.436","TLE_LINE1":"1 52466U 22049R   23055.14012319  .00016528  00000-0  10533-2 0  9992","SEMIMAJOR_AXIS":"6917.793","TLE_LINE2":"2 52466  53.2178   0.0883 0000796  92.2821 267.8262 15.08868587 44902","BSTAR":"0.00105330000000","TIME_SYSTEM":"UTC","REF_FRAME":"TEME","MEAN_MOTION_DDOT":"0.0000000000000","SITE":"AFETR","COUNTRY_CODE":"US","EPOCH":"2023-02-24T03:21:46.643616","OBJECT_ID":"2022-049R","CENTER_NAME":"EARTH","OBJECT_TYPE":"PAYLOAD","MEAN_ANOMALY":"267.8262"},{"ELEMENT_SET_NO":"999","ARG_OF_PERICENTER":"97.1210","FILE":"3834848","RA_OF_ASC_NODE":"356.5023","OBJECT_NAME":"STARLINK-3873","ECCENTRICITY":"0.00007950","GP_ID":"226749739","TLE_LINE2":"2 52467  53.2159 356.5023 0000795  97.1210 262.9873 15.08836578 45025","BSTAR":"0.00000212380000","PERIOD":"95.438","SEMIMAJOR_AXIS":"6917.891","TLE_LINE1":"1 52467U 22049S   23055.93868968 -.00000254  00000-0  21238-5 0  9996","INCLINATION":"53.2159","PERIAPSIS":"539.206","LAUNCH_DATE":"2022-05-06","MEAN_MOTION_DOT":"-0.00000254","MEAN_MOTION":"15.08836578","APOAPSIS":"540.306","EPHEMERIS_TYPE":"0","REV_AT_EPOCH":"4502","RCS_SIZE":"LARGE","MEAN_ELEMENT_THEORY":"SGP4","CLASSIFICATION_TYPE":"U","NORAD_CAT_ID":"52467","DECAY_DATE":null,"OBJECT_ID":"2022-049S","CENTER_NAME":"EARTH","OBJECT_TYPE":"PAYLOAD","MEAN_ANOMALY":"262.9873","TIME_SYSTEM":"UTC","MEAN_MOTION_DDOT":"0.0000000000000","REF_FRAME":"TEME","EPOCH":"2023-02-24T22:31:42.788352","COUNTRY_CODE":"US","SITE":"AFETR"},{"TIME_SYSTEM":"UTC","REF_FRAME":"TEME","MEAN_MOTION_DDOT":"0.0000000000000","COUNTRY_CODE":"US","EPOCH":"2023-02-24T20:35:07.794240","SITE":"AFETR","OBJECT_ID":"2022-049T","CENTER_NAME":"EARTH","OBJECT_TYPE":"PAYLOAD","MEAN_ANOMALY":"274.6028","LAUNCH_DATE":"2022-05-06","PERIAPSIS":"538.824","INCLINATION":"53.2172","MEAN_MOTION":"15.08830599","MEAN_MOTION_DOT":"-0.00008232","EPHEMERIS_TYPE":"0","REV_AT_EPOCH":"4485","APOAPSIS":"540.724","MEAN_ELEMENT_THEORY":"SGP4","RCS_SIZE":"LARGE","NORAD_CAT_ID":"52468","CLASSIFICATION_TYPE":"U","DECAY_DATE":null,"ARG_OF_PERICENTER":"85.5121","ELEMENT_SET_NO":"999","FILE":"3835059","RA_OF_ASC_NODE":"356.8668","ECCENTRICITY":"0.00013730","GP_ID":"226778498","OBJECT_NAME":"STARLINK-3864","TLE_LINE2":"2 52468  53.2172 356.8668 0001373  85.5121 274.6028 15.08830599 44853","BSTAR":"-0.00049986000000","PERIOD":"95.438","TLE_LINE1":"1 52468U 22049T   23055.85772910 -.00008232  00000-0 -49986-3 0  9992","SEMIMAJOR_AXIS":"6917.909"}];
